NORAD_CAT_ID,OBJECT_NAME,OBJECT_TYPE,EPOCH,MEAN_MOTION,ECCENTRICITY,INCLINATION,RA_OF_ASC_NODE,ARG_OF_PERICENTER,MEAN_ANOMALY,BSTAR,MEAN_MOTION_DOT,MEAN_MOTION_DDOT,TLE_LINE0,TLE_LINE1,TLE_LINE2,SEMIMAJOR_AXIS,PERIOD,APOGEE,PERIGEE,DECAYED
54052.0,STARLINK-5189,PAYLOAD,2023-12-24 02:57:56,15.08843199,0.0001999,53.2177,324.7446,113.6025,246.5178,0.00016578,2.351e-05,0.0,0 STARLINK-5189,1 54052U 22136B   23358.12357368  .00002351  00000-0  16578-3 0  9997,2 54052  53.2177 324.7446 0001999 113.6025 246.5178 15.08843199 66136,6917.871,95.437,541.118,538.353,0.0
54052.0,STARLINK-5189,PAYLOAD,2023-12-24 04:33:20,15.08842381,0.000178,53.2177,324.4599,90.9312,269.1884,0.00020645,2.999e-05,0.0,0 STARLINK-5189,1 54052U 22136B   23358.18981740  .00002999  00000-0  20645-3 0  9998,2 54052  53.2177 324.4599 0001780  90.9312 269.1884 15.08842381 65659,6917.873,95.437,540.969,538.507,0.0
54052.0,STARLINK-5189,PAYLOAD,2023-12-24 22:02:34,15.08845695,0.0001792,53.2176,321.182,103.0753,257.0439,0.00017052,2.427e-05,0.0,0 STARLINK-5189,1 54052U 22136B   23358.91845554  .00002427  00000-0  17052-3 0  9995,2 54052  53.2176 321.1820 0001792 103.0753 257.0439 15.08845695 65762,6917.863,95.437,540.968,538.488,0.0
54052.0,STARLINK-5189,PAYLOAD,2023-12-25 04:24:06,15.0885555,0.0001729,53.2177,319.9942,102.4393,257.6793,0.00046614,7.141e-05,0.0,0 STARLINK-5189,1 54052U 22136B   23359.18341021  .00007141  00000-0  46614-3 0  9999,2 54052  53.2177 319.9942 0001729 102.4393 257.6793 15.08855550 66295,6917.833,95.437,540.894,538.502,0.0
54052.0,STARLINK-5189,PAYLOAD,2023-12-25 21:53:21,15.08842281,0.0001857,53.2185,316.7303,109.0009,251.1184,0.00012955,1.774e-05,0.0,0 STARLINK-5189,1 54052U 22136B   23359.91205596  .00001774  00000-0  12955-3 0  9993,2 54052  53.2185 316.7303 0001857 109.0009 251.1184 15.08842281 65917,6917.873,95.437,541.023,538.454,0.0
54052.0,STARLINK-5189,PAYLOAD,2023-12-26 02:39:31,15.08843149,0.0001824,53.2185,315.8382,108.6617,251.4573,0.00014034,1.946e-05,0.0,0 STARLINK-5189,1 54052U 22136B   23360.11077604  .00001946  00000-0  14034-3 0  9995,2 54052  53.2185 315.8382 0001824 108.6617 251.4573 15.08843149 66435,6917.871,95.437,540.998,538.474,0.0
54052.0,STARLINK-5189,PAYLOAD,2023-12-26 07:25:40,15.0885227,0.0001772,53.2173,314.9386,116.7985,243.3188,0.00035205,5.321e-05,0.0,0 STARLINK-5189,1 54052U 22136B   23360.30949199  .00005321  00000-0  35205-3 0  9997,2 54052  53.2173 314.9386 0001772 116.7985 243.3188 15.08852270 65971,6917.843,95.437,540.934,538.482,0.0
54052.0,STARLINK-5189,PAYLOAD,2023-12-26 20:08:45,15.08835752,0.0001802,53.2176,312.5603,103.7663,256.353,0.00011941,1.613e-05,0.0,0 STARLINK-5189,1 54052U 22136B   23360.83941704  .00001613  00000-0  11941-3 0  9990,2 54052  53.2176 312.5603 0001802 103.7663 256.3530 15.08835752 66054,6917.893,95.438,541.005,538.512,0.0
54052.0,STARLINK-5189,PAYLOAD,2023-12-27 04:05:41,15.08835602,0.0001711,53.2173,311.0729,109.5447,250.573,0.00030336,4.543e-05,0.0,0 STARLINK-5189,1 54052U 22136B   23361.17061909  .00004543  00000-0  30336-3 0  9992,2 54052  53.2173 311.0729 0001711 109.5447 250.5730 15.08835602 66598,6917.894,95.438,540.942,538.575,0.0
54052.0,STARLINK-5189,PAYLOAD,2023-12-28 05:31:51,15.08844826,0.0001621,53.2172,306.3163,103.5013,256.616,0.00040801,6.212e-05,0.0,0 STARLINK-5189,1 54052U 22136B   23362.23046138  .00006212  00000-0  40801-3 0  9990,2 54052  53.2172 306.3163 0001621 103.5013 256.6160 15.08844826 66759,6917.866,95.437,540.852,538.609,0.0
54052.0,STARLINK-5189,PAYLOAD,2023-12-29 03:47:15,15.08845809,0.00016,53.2171,302.1533,84.1933,275.9241,0.00027014,4.015e-05,0.0,0 STARLINK-5189,1 54052U 22136B   23363.15782205  .00004015  00000-0  27014-3 0  9994,2 54052  53.2171 302.1533 0001600  84.1933 275.9241 15.08845809 66896,6917.863,95.437,540.834,538.621,0.0
54052.0,STARLINK-5189,PAYLOAD,2023-12-29 05:22:38,15.08850035,0.0001559,53.217,301.8553,93.9554,266.1616,0.00037421,5.674e-05,0.0,0 STARLINK-5189,1 54052U 22136B   23363.22406032  .00005674  00000-0  37421-3 0  9998,2 54052  53.2170 301.8553 0001559  93.9554 266.1616 15.08850035 66416,6917.85,95.437,540.793,538.636,0.0
54052.0,STARLINK-5189,PAYLOAD,2023-12-30 02:02:39,15.08845093,0.0001769,53.2182,297.9813,81.076,279.0432,0.00015097,2.116e-05,0.0,0 STARLINK-5189,1 54052U 22136B   23364.08518156  .00002116  00000-0  15097-3 0  9997,2 54052  53.2182 297.9813 0001769  81.0760 279.0432 15.08845093 67039,6917.865,95.437,540.954,538.506,0.0
54052.0,STARLINK-5189,PAYLOAD,2023-12-30 05:13:25,15.08847999,0.0001656,53.2186,297.3841,86.6349,273.4833,0.00026795,3.98e-05,0.0,0 STARLINK-5189,1 54052U 22136B   23364.21765826  .00003980  00000-0  26795-3 0  9997,2 54052  53.2186 297.3841 0001656  86.6349 273.4833 15.08847999 66564,6917.856,95.437,540.867,538.575,0.0
54052.0,STARLINK-5189,PAYLOAD,2023-12-31 05:04:12,15.08842759,0.0001941,53.2187,292.9272,110.442,249.6781,4.9861e-05,5.06e-06,0.0,0 STARLINK-5189,1 54052U 22136B   23365.21125878  .00000506  00000-0  49861-4 0  9996,2 54052  53.2187 292.9272 0001941 110.4420 249.6781 15.08842759 67205,6917.872,95.437,541.08,538.394,0.0
54052.0,STARLINK-5189,PAYLOAD,2023-12-31 22:33:27,15.08838404,0.0001949,53.2189,289.6542,115.5266,244.5927,1.3566e-05,-7.2e-07,0.0,0 STARLINK-5189,1 54052U 22136B   23365.93990168 -.00000072  00000-0  13566-4 0  9999,2 54052  53.2189 289.6542 0001949 115.5266 244.5927 15.08838404 66827,6917.885,95.438,541.099,538.402,0.0
54052.0,STARLINK-5189,PAYLOAD,2024-01-01 01:44:13,15.0883963,0.0001633,53.2173,289.0608,90.8239,269.294,-4.9133e-05,-1.07e-05,0.0,0 STARLINK-5189,1 54052U 22136B   24001.07238262 -.00001070  00000-0 -49133-4 0  9991,2 54052  53.2173 289.0608 0001633  90.8239 269.2940 15.08839630 67330,6917.882,95.438,540.876,538.617,0.0
54052.0,STARLINK-5189,PAYLOAD,2024-01-01 04:55:00,15.08837296,0.0001788,53.2175,288.4691,106.3673,253.7515,-6.5299e-05,-1.327e-05,0.0,0 STARLINK-5189,1 54052U 22136B   24001.20486384 -.00001327  00000-0 -65299-4 0  9992,2 54052  53.2175 288.4691 0001788 106.3673 253.7515 15.08837296 66862,6917.889,95.438,540.991,538.517,0.0
54052.0,STARLINK-5189,PAYLOAD,2024-01-01 22:24:14,15.08851773,0.000141,53.2177,285.2015,98.6001,261.5151,-7.0963e-06,-4.01e-06,0.0,0 STARLINK-5189,1 54052U 22136B   24001.93349782 -.00000401  00000-0 -70963-5 0  9999,2 54052  53.2177 285.2015 0001410  98.6001 261.5151 15.08851773 66970,6917.844,95.437,540.685,538.734,0.0
54052.0,STARLINK-5189,PAYLOAD,2024-01-02 01:35:00,15.08847683,0.0001776,53.2183,284.6042,107.1102,253.0084,0.00015687,2.21e-05,0.0,0 STARLINK-5189,1 54052U 22136B   24002.06597554  .00002210  00000-0  15687-3 0  9994,2 54052  53.2183 284.6042 0001776 107.1102 253.0084 15.08847683 67486,6917.857,95.437,540.951,538.493,0.0
54052.0,STARLINK-5189,PAYLOAD,2024-01-02 04:45:46,15.08862217,0.0001786,53.2171,284.0114,98.3888,261.7307,-0.0001518,-2.705e-05,0.0,0 STARLINK-5189,1 54052U 22136B   24002.19845060 -.00002705  00000-0 -15180-3 0  9995,2 54052  53.2171 284.0114 0001786  98.3888 261.7307 15.08862217 67507,6917.812,95.436,540.913,538.442,0.0
54052.0,STARLINK-5189,PAYLOAD,2024-01-02 19:04:15,15.08842835,0.0001571,53.2165,281.3373,99.6897,260.4272,8.6261e-05,1.085e-05,0.0,0 STARLINK-5189,1 54052U 22136B   24002.79462063  .00001085  00000-0  86261-4 0  9996,2 54052  53.2165 281.3373 0001571  99.6897 260.4272 15.08842835 67593,6917.872,95.437,540.824,538.65,0.0
54052.0,STARLINK-5189,PAYLOAD,2024-01-02 22:15:01,15.08844485,0.000156,53.215,280.7395,102.7763,257.3403,3.1071e-05,2.07e-06,0.0,0 STARLINK-5189,1 54052U 22136B   24002.92709861  .00000207  00000-0  31071-4 0  9995,2 54052  53.2150 280.7395 0001560 102.7763 257.3403 15.08844485 67123,6917.867,95.437,540.811,538.652,0.0
54052.0,STARLINK-5189,PAYLOAD,2024-01-03 04:36:33,15.08844514,0.0001414,53.2159,279.5529,96.1469,263.9684,8.6901e-05,1.096e-05,0.0,0 STARLINK-5189,1 54052U 22136B   24003.19205860  .00001096  00000-0  86901-4 0  9994,2 54052  53.2159 279.5529 0001414  96.1469 263.9684 15.08844514 67165,6917.867,95.437,540.71,538.753,0.0
54052.0,STARLINK-5189,PAYLOAD,2024-01-03 22:05:48,15.08837343,0.0001458,53.2156,276.2811,101.174,258.9416,-0.00011227,-2.074e-05,0.0,0 STARLINK-5189,1 54052U 22136B   24003.92070276 -.00002074  00000-0 -11227-3 0  9993,2 54052  53.2156 276.2811 0001458 101.1740 258.9416 15.08837343 67278,6917.889,95.438,540.762,538.745,0.0
54052.0,STARLINK-5189,PAYLOAD,2024-01-04 02:51:58,15.08844145,0.0001423,53.2166,275.3891,101.5601,258.5551,-4.8267e-06,-3.65e-06,0.0,0 STARLINK-5189,1 54052U 22136B   24004.11942300 -.00000365  00000-0 -48267-5 0  9998,2 54052  53.2166 275.3891 0001423 101.5601 258.5551 15.08844145 67790,6917.868,95.437,540.717,538.748,0.0
54052.0,STARLINK-5189,PAYLOAD,2024-01-04 21:56:35,15.08839425,0.0001352,53.2165,271.8207,99.6797,260.4348,5.8813e-05,6.48e-06,0.0,0 STARLINK-5189,1 54052U 22136B   24004.91430493  .00000648  00000-0  58813-4 0  9990,2 54052  53.2165 271.8207 0001352  99.6797 260.4348 15.08839425 67426,6917.882,95.438,540.682,538.812,0.0
54052.0,STARLINK-5189,PAYLOAD,2024-01-05 02:42:44,15.08852713,0.0001211,53.2172,270.9268,93.1024,267.0106,7.0596e-06,-1.75e-06,0.0,0 STARLINK-5189,1 54052U 22136B   24005.11301723 -.00000175  00000-0  70596-5 0  9995,2 54052  53.2172 270.9268 0001211  93.1024 267.0106 15.08852713 67450,6917.842,95.437,540.544,538.869,0.0
54052.0,STARLINK-5189,PAYLOAD,2024-01-05 21:47:23,15.08836341,0.0001413,53.217,267.3596,91.2022,268.9132,6.1866e-05,6.97e-06,0.0,0 STARLINK-5189,1 54052U 22136B   24005.90790970  .00000697  00000-0  61866-4 0  9995,2 54052  53.2170 267.3596 0001413  91.2022 268.9132 15.08836341 67574,6917.892,95.438,540.734,538.779,0.0
54052.0,STARLINK-5189,PAYLOAD,2024-01-06 00:58:09,15.08840163,0.0001418,53.2165,266.7653,94.0992,266.0162,0.00010864,1.441e-05,0.0,0 STARLINK-5189,1 54052U 22136B   24006.04038613  .00001441  00000-0  10864-3 0  9999,2 54052  53.2165 266.7653 0001418  94.0992 266.0162 15.08840163 68083,6917.88,95.438,540.726,538.764,0.0
